OBJECT_NAME,OBJECT_ID,EPOCH,MEAN_MOTION,ECCENTRICITY,INCLINATION,RA_OF_ASC_NODE,ARG_OF_PERICENTER,MEAN_ANOMALY,EPHEMERIS_TYPE,CLASSIFICATION_TYPE,NORAD_CAT_ID,ELEMENT_SET_NO,REV_AT_EPOCH,BSTAR,MEAN_MOTION_DOT,MEAN_MOTION_DDOT
SYRACUSE 4B,2023-093B,2026-07-02T05:23:51.524160,1.00269130,.00003202,0.0246,43.8273,131.7650,179.1821,0,U,57214,999,711,0,0,0
JUPITER 3 (ECHOSTAR 24),2023-108A,2026-07-01T11:42:45.650304,1.00271938,.00010669,0.0238,29.1846,71.7526,259.0748,0,U,57479,999,1079,0,0,0
GALAXY 37 (G-37),2023-112A,2026-07-02T04:28:38.912736,1.00271545,.00020999,0.0179,346.2885,115.7886,118.3124,0,U,57493,999,1069,0,.59E-6,0
LUDI TANCE-4 01A,2023-120A,2026-07-01T19:49:50.102976,1.00266926,.00012811,15.0947,193.6070,17.4858,95.7535,0,U,57624,999,1069,0,-.162E-5,0
TJS-10,2023-169A,2026-07-01T17:53:22.837344,1.00270067,.0004165,2.5799,80.3263,104.0173,96.2322,0,U,58204,999,968,0,-.24E-5,0
ZHONGXING-6E,2023-172A,2026-07-01T23:07:55.644672,1.00272127,.00025862,0.0216,279.2608,179.7203,283.5379,0,U,58253,999,980,0,-.351E-5,0
YAOGAN-41,2023-197A,2026-07-02T06:00:43.246656,1.00273558,.00143636,3.1021,313.3582,196.1121,344.2086,0,U,58582,999,947,0,-.349E-5,0
OVZON-3,2024-003A,2026-07-02T05:42:42.217632,1.00271789,.00002149,0.0161,70.1634,47.4172,308.0820,0,U,58698,999,759,0,0,0
INSAT-3DS,2024-033A,2026-07-02T02:23:43.331712,1.00269499,.00014539,0.0710,97.0576,354.6746,306.3808,0,U,58990,999,4721,0,-.145E-5,0
MERAH PUTIH 2,2024-035A,2026-07-02T05:57:40.781952,1.00270272,.00013496,0.0166,328.2393,115.1553,39.2638,0,U,58995,999,874,0,-.347E-5,0
TJS-11,2024-037A,2026-06-29T15:34:09.330240,1.00270550,.0003431,4.1831,327.2324,121.1853,175.5098,0,U,59020,999,870,0,-.349E-5,0
HULIANWAN GAOGUI-01 (HG-01),2024-040A,2026-07-02T05:35:12.935904,1.00272998,.00028745,0.0711,331.3024,73.0454,353.3390,0,U,59069,999,747,0,.166E-5,0
EUTELSAT 36D,2024-059A,2026-07-01T19:19:54.391296,1.00275117,.00004301,0.0241,45.5438,85.3511,114.7796,0,U,59346,999,829,0,0,0
PAKSAT-MM1,2024-104A,2026-07-02T05:36:35.303616,1.00275128,.00026667,0.0035,255.0105,182.2225,325.3859,0,U,59915,999,767,0,.164E-5,0
ASTRA 1P (SES-24),2024-115A,2026-07-01T19:15:09.845856,1.00269956,.00004003,0.0597,343.4697,161.2412,83.1400,0,U,60086,999,734,0,.13E-5,0
GOES 19,2024-119A,2026-07-02T05:04:15.902688,1.00271317,.00005303,0.0088,112.2517,44.0208,124.8580,0,U,60133,999,711,0,-.238E-5,0
ZHONGXING-3A,2024-122A,2026-07-01T14:30:39.981888,1.00276406,.0001711,0.0347,112.7027,13.4089,112.7870,0,U,60179,999,745,0,-.304E-5,0
TURKSAT 6A,2024-127A,2026-07-01T21:04:20.061408,1.00269513,.0002759,0.0150,215.4043,293.2996,129.3062,0,U,60233,999,716,0,0,0
HULIANWAN GAOGUI-02 (HG-02),2024-135A,2026-07-01T14:45:06.014880,1.00268199,.00069873,0.0441,356.1189,15.2077,282.6697,0,U,60327,999,764,0,-.164E-5,0
ZHONGXING-4A,2024-151A,2026-07-02T00:51:19.862784,1.00275677,.00003911,1.2779,270.6207,172.4298,328.0543,0,U,60606,999,690,0,-.351E-5,0
HULIANWAN GAOGUI-03 (HG-03),2024-181A,2026-07-01T01:41:10.376736,1.00270233,.00015046,0.0471,0.6800,86.3247,140.2966,0,U,61503,999,696,0,-.231E-5,0
DSN-3 (KIRAMEKI-3),2024-198A,2026-07-02T06:06:42.672384,1.00272009,.00009918,0.0178,24.6453,92.3941,39.0015,0,U,61733,999,607,0,-.239E-5,0
KOREASAT 6A,2024-206A,2026-07-02T05:58:33.198240,1.00269341,.00008577,0.0147,88.9089,358.6767,38.3500,0,U,61910,999,599,0,-.351E-5,0
OPTUS-X (ADS-01),2024-212A,2026-07-02T03:38:38.931936,1.00274906,.00024096,0.0258,290.3597,212.5127,348.3963,0,U,62006,999,591,0,-.132E-5,0
GSAT-N2 (GSAT-20),2024-214A,2026-07-02T02:19:43.714272,1.00272884,.00021786,0.0689,98.2104,354.2308,290.5828,0,U,62028,999,604,0,-.9E-7,0
SXM-9,2024-234A,2026-07-01T06:46:49.479168,1.00270531,.00046451,0.0133,348.2382,331.0150,336.6299,0,U,62259,999,571,0,-.195E-5,0
TJS-12,2024-246A,2026-07-02T06:07:27.600384,1.00273415,.00022571,0.6392,300.5846,104.9598,113.1670,0,U,62374,999,571,0,-.219E-5,0
NUVIEW ALPHA,2024-252B,2026-07-02T01:36:41.977728,1.00270958,.00011095,0.0497,32.5301,44.0772,144.5690,0,U,62455,999,397,0,-.205E-5,0
AGILA,2024-252C,2026-07-02T03:38:38.931936,1.00271364,.00010833,0.0613,124.6592,356.9540,5.4037,0,U,62456,999,531,0,-.171E-5,0
NUVIEW BRAVO,2024-252D,2026-07-02T01:36:41.977728,1.00271713,.00016853,0.0714,159.3350,338.5113,83.3306,0,U,62457,999,394,0,-.204E-5,0
THURAYA-4,2025-001A,2026-07-01T22:47:42.725184,1.00272443,.00001802,0.0223,66.7825,27.6584,211.7843,0,U,62483,999,432,0,.15E-5,0
