SYRACUSE 4B             
1 57214U 23093B   26183.22490190  .00000000  00000+0  00000+0 0  9991
2 57214   0.0246  43.8273 0000320 131.7650 179.1821  1.00269130  7118
JUPITER 3 (ECHOSTAR 24) 
1 57479U 23108A   26182.48802836  .00000000  00000+0  00000+0 0  9992
2 57479   0.0238  29.1846 0001066  71.7526 259.0748  1.00271938 10791
GALAXY 37 (G-37)        
1 57493U 23112A   26183.18656149  .00000059  00000+0  00000+0 0  9999
2 57493   0.0179 346.2885 0002099 115.7886 118.3124  1.00271545 10690
LUDI TANCE-4 01A        
1 57624U 23120A   26182.82627434 -.00000162  00000+0  00000+0 0  9995
2 57624  15.0947 193.6070 0001281  17.4858  95.7535  1.00266926 10695
TJS-10                  
1 58204U 23169A   26182.74540321 -.00000240  00000+0  00000+0 0  9990
2 58204   2.5799  80.3263 0004165 104.0173  96.2322  1.00270067  9687
ZHONGXING-6E            
1 58253U 23172A   26182.96383848 -.00000351  00000+0  00000+0 0  9994
2 58253   0.0216 279.2608 0002586 179.7203 283.5379  1.00272127  9804
YAOGAN-41               
1 58582U 23197A   26183.25050054 -.00000349  00000+0  00000+0 0  9996
2 58582   3.1021 313.3582 0014363 196.1121 344.2086  1.00273558  9478
OVZON-3                 
1 58698U 24003A   26183.23798863  .00000000  00000+0  00000+0 0  9999
2 58698   0.0161  70.1634 0000214  47.4172 308.0820  1.00271789  7596
INSAT-3DS               
1 58990U 24033A   26183.09980708 -.00000145  00000+0  00000+0 0  9993
2 58990   0.0710  97.0576 0001453 354.6746 306.3808  1.00269499 47215
MERAH PUTIH 2           
1 58995U 24035A   26183.24838868 -.00000347  00000+0  00000+0 0  9990
2 58995   0.0166 328.2393 0001349 115.1553  39.2638  1.00270272  8740
TJS-11                  
1 59020U 24037A   26180.64871910 -.00000349  00000+0  00000+0 0  9990
2 59020   4.1831 327.2324 0003431 121.1853 175.5098  1.00270550  8700
HULIANWAN GAOGUI-01 (H*)
1 59069U 24040A   26183.23278861  .00000166  00000+0  00000+0 0  9997
2 59069   0.0711 331.3024 0002874  73.0454 353.3390  1.00272998  7472
EUTELSAT 36D            
1 59346U 24059A   26182.80549064  .00000000  00000+0  00000+0 0  9990
2 59346   0.0241  45.5438 0000430  85.3511 114.7796  1.00275117  8293
PAKSAT-MM1              
1 59915U 24104A   26183.23374194  .00000164  00000+0  00000+0 0  9992
2 59915   0.0035 255.0105 0002666 182.2225 325.3859  1.00275128  7670
ASTRA 1P (SES-24)       
1 60086U 24115A   26182.80219729  .00000130  00000+0  00000+0 0  9992
2 60086   0.0597 343.4697 0000400 161.2412  83.1400  1.00269956  7348
GOES 19                 
1 60133U 24119A   26183.21129517 -.00000238  00000+0  00000+0 0  9990
2 60133   0.0088 112.2517 0000530  44.0208 124.8580  1.00271317  7115
ZHONGXING-3A            
1 60179U 24122A   26182.60462942 -.00000304  00000+0  00000+0 0  9992
2 60179   0.0347 112.7027 0001711  13.4089 112.7870  1.00276406  7452
TURKSAT 6A              
1 60233U 24127A   26182.87800997  .00000000  00000+0  00000+0 0  9995
2 60233   0.0150 215.4043 0002759 293.2996 129.3062  1.00269513  7168
HULIANWAN GAOGUI-02 (H*)
1 60327U 24135A   26182.61465295 -.00000164  00000+0  00000+0 0  9990
2 60327   0.0441 356.1189 0006987  15.2077 282.6697  1.00268199  7647
ZHONGXING-4A            
1 60606U 24151A   26183.03564656 -.00000351  00000+0  00000+0 0  9994
2 60606   1.2779 270.6207 0000391 172.4298 328.0543  1.00275677  6901
HULIANWAN GAOGUI-03 (H*)
1 61503U 24181A   26182.07025899 -.00000231  00000+0  00000+0 0  9995
2 61503   0.0471   0.6800 0001504  86.3247 140.2966  1.00270233  6960
DSN-3 (KIRAMEKI-3)      
1 61733U 24198A   26183.25466056 -.00000239  00000+0  00000+0 0  9991
2 61733   0.0178  24.6453 0000991  92.3941  39.0015  1.00272009  6071
KOREASAT 6A             
1 61910U 24206A   26183.24899535 -.00000351  00000+0  00000+0 0  9994
2 61910   0.0147  88.9089 0000857 358.6767  38.3500  1.00269341  5993
OPTUS-X (ADS-01)        
1 62006U 24212A   26183.15183949 -.00000132  00000+0  00000+0 0  9990
2 62006   0.0258 290.3597 0002409 212.5127 348.3963  1.00274906  5911
GSAT-N2 (GSAT-20)       
1 62028U 24214A   26183.09703373 -.00000009  00000+0  00000+0 0  9991
2 62028   0.0689  98.2104 0002178 354.2308 290.5828  1.00272884  6046
SXM-9                   
1 62259U 24234A   26182.28251712 -.00000195  00000+0  00000+0 0  9990
2 62259   0.0133 348.2382 0004645 331.0150 336.6299  1.00270531  5715
TJS-12                  
1 62374U 24246A   26183.25518056 -.00000219  00000+0  00000+0 0  9993
2 62374   0.6392 300.5846 0002257 104.9598 113.1670  1.00273415  5717
NUVIEW ALPHA            
1 62455U 24252B   26183.06715252 -.00000205  00000+0  00000+0 0  9991
2 62455   0.0497  32.5301 0001109  44.0772 144.5690  1.00270958  3973
AGILA                   
1 62456U 24252C   26183.15183949 -.00000171  00000+0  00000+0 0  9996
2 62456   0.0613 124.6592 0001083 356.9540   5.4037  1.00271364  5310
NUVIEW BRAVO            
1 62457U 24252D   26183.06715252 -.00000204  00000+0  00000+0 0  9992
2 62457   0.0714 159.3350 0001685 338.5113  83.3306  1.00271713  3949
THURAYA-4               
1 62483U 25001A   26182.94980006  .00000150  00000+0  00000+0 0  9990
2 62483   0.0223  66.7825 0000180  27.6584 211.7843  1.00272443  4325
